ONEWEB-0190             
1 48796U 21045AF  26089.97145706  .00000130  00000+0  31206-3 0  9998
2 48796  87.8928 274.8099 0002445  98.0317 262.1091 13.15550531234087
ONEWEB-0236             
1 48797U 21045AG  26090.21706650  .00000019  00000+0  17602-4 0  9990
2 48797  87.8926 274.7718 0001601  89.5369 270.5945 13.15550006234008
ONEWEB-0248             
1 48798U 21045AH  26090.22975190 -.00000051  00000+0 -16841-3 0  9990
2 48798  87.8937 274.7447 0002182  88.1453 271.9927 13.15547841234169
ONEWEB-0225             
1 48799U 21045AJ  26089.94770081  .00000165  00000+0  40359-3 0  9995
2 48799  87.8924 274.8151 0002326  96.9331 263.2064 13.15549527234137
ONEWEB-0215             
1 48800U 21045AK  26090.22182689 -.00000048  00000+0 -16093-3 0  9992
2 48800  87.8939 274.7355 0002474  93.4515 266.6898 13.15550173234042
ONEWEB-0216             
1 48801U 21045AL  26090.23132760 -.00000060  00000+0 -19468-3 0  9992
2 48801  87.8934 274.7511 0001700  95.8089 264.3235 13.15548244234052
ONEWEB-0239             
1 48802U 21045AM  26090.23607666 -.00000027  00000+0 -10586-3 0  9990
2 48802  87.8923 274.7635 0002530  87.1371 273.0049 13.15547480234093
ONEWEB-0249             
1 48967U 21060A   26090.15600528 -.00000093  00000+0 -27664-3 0  9998
2 48967  87.9035 244.2869 0001815  96.4352 263.6986 13.16592756229342
ONEWEB-0250             
1 48968U 21060B   26090.12278550  .00000130  00000+0  26727-3 0  9991
2 48968  87.9035 242.3030 0001980  68.3966 291.7382 13.25829512229877
ONEWEB-0252             
1 48970U 21060D   26089.95889642  .00000061  00000+0  12546-3 0  9990
2 48970  87.9032 244.3184 0001778 107.1479 252.9847 13.16595141229362
ONEWEB-0253             
1 48971U 21060E   26089.94779945  .00000073  00000+0  15771-3 0  9990
2 48971  87.9033 244.3264 0001802  97.6354 262.4982 13.16596510229295
ONEWEB-0254             
1 48972U 21060F   26089.95731647  .00000070  00000+0  14827-3 0  9997
2 48972  87.9037 244.3199 0002033  94.2195 265.9168 13.16594894229297
ONEWEB-0255             
1 48973U 21060G   26090.14730531 -.00000098  00000+0 -29073-3 0  9993
2 48973  87.9035 244.2905 0001958  97.1781 262.9572 13.16593073229393
ONEWEB-0256             
1 48974U 21060H   26089.94542765  .00000101  00000+0  23186-3 0  9992
2 48974  87.9036 244.3385 0001645 103.1179 257.0135 13.16595759229337
ONEWEB-0257             
1 48975U 21060J   26090.12988765  .00000067  00000+0  14196-3 0  9991
2 48975  87.9036 244.2852 0001890 100.9879 259.1464 13.16595731229316
ONEWEB-0258             
1 48976U 21060K   26090.13145425 -.00000281  00000+0 -76820-3 0  9993
2 48976  87.9033 244.2961 0001754  96.7798 263.3532 13.16595929229329
