[{"OBJECT_NAME":"ONEWEB-0190","OBJECT_ID":"2021-045AF","EPOCH":"2026-03-30T23:18:53.889984","MEAN_MOTION":13.15550531,"ECCENTRICITY":0.0002445,"INCLINATION":87.8928,"RA_OF_ASC_NODE":274.8099,"ARG_OF_PERICENTER":98.0317,"MEAN_ANOMALY":262.1091,"EPHEMERIS_TYPE":0,"CLASSIFICATION_TYPE":"U","NORAD_CAT_ID":48796,"ELEMENT_SET_NO":999,"REV_AT_EPOCH":23408,"BSTAR":0.00031206,"MEAN_MOTION_DOT":1.3e-06,"MEAN_MOTION_DDOT":0.0},{"OBJECT_NAME":"ONEWEB-0236","OBJECT_ID":"2021-045AG","EPOCH":"2026-03-31T05:12:34.545600","MEAN_MOTION":13.15550006,"ECCENTRICITY":0.0001601,"INCLINATION":87.8926,"RA_OF_ASC_NODE":274.7718,"ARG_OF_PERICENTER":89.5369,"MEAN_ANOMALY":270.5945,"EPHEMERIS_TYPE":0,"CLASSIFICATION_TYPE":"U","NORAD_CAT_ID":48797,"ELEMENT_SET_NO":999,"REV_AT_EPOCH":23400,"BSTAR":1.7602000000000002e-05,"MEAN_MOTION_DOT":1.9e-07,"MEAN_MOTION_DDOT":0.0},{"OBJECT_NAME":"ONEWEB-0248","OBJECT_ID":"2021-045AH","EPOCH":"2026-03-31T05:30:50.564160","MEAN_MOTION":13.15547841,"ECCENTRICITY":0.0002182,"INCLINATION":87.8937,"RA_OF_ASC_NODE":274.7447,"ARG_OF_PERICENTER":88.1453,"MEAN_ANOMALY":271.9927,"EPHEMERIS_TYPE":0,"CLASSIFICATION_TYPE":"U","NORAD_CAT_ID":48798,"ELEMENT_SET_NO":999,"REV_AT_EPOCH":23416,"BSTAR":-0.00016841,"MEAN_MOTION_DOT":-5.1e-07,"MEAN_MOTION_DDOT":0.0},{"OBJECT_NAME":"ONEWEB-0225","OBJECT_ID":"2021-045AJ","EPOCH":"2026-03-30T22:44:41.349984","MEAN_MOTION":13.15549527,"ECCENTRICITY":0.0002326,"INCLINATION":87.8924,"RA_OF_ASC_NODE":274.8151,"ARG_OF_PERICENTER":96.9331,"MEAN_ANOMALY":263.2064,"EPHEMERIS_TYPE":0,"CLASSIFICATION_TYPE":"U","NORAD_CAT_ID":48799,"ELEMENT_SET_NO":999,"REV_AT_EPOCH":23413,"BSTAR":0.00040359,"MEAN_MOTION_DOT":1.65e-06,"MEAN_MOTION_DDOT":0.0},{"OBJECT_NAME":"ONEWEB-0215","OBJECT_ID":"2021-045AK","EPOCH":"2026-03-31T05:19:25.843296","MEAN_MOTION":13.15550173,"ECCENTRICITY":0.0002474,"INCLINATION":87.8939,"RA_OF_ASC_NODE":274.7355,"ARG_OF_PERICENTER":93.4515,"MEAN_ANOMALY":266.6898,"EPHEMERIS_TYPE":0,"CLASSIFICATION_TYPE":"U","NORAD_CAT_ID":48800,"ELEMENT_SET_NO":999,"REV_AT_EPOCH":23404,"BSTAR":-0.00016093,"MEAN_MOTION_DOT":-4.8e-07,"MEAN_MOTION_DDOT":0.0},{"OBJECT_NAME":"ONEWEB-0216","OBJECT_ID":"2021-045AL","EPOCH":"2026-03-31T05:33:06.704640","MEAN_MOTION":13.15548244,"ECCENTRICITY":0.00017,"INCLINATION":87.8934,"RA_OF_ASC_NODE":274.7511,"ARG_OF_PERICENTER":95.8089,"MEAN_ANOMALY":264.3235,"EPHEMERIS_TYPE":0,"CLASSIFICATION_TYPE":"U","NORAD_CAT_ID":48801,"ELEMENT_SET_NO":999,"REV_AT_EPOCH":23405,"BSTAR":-0.00019468,"MEAN_MOTION_DOT":-6e-07,"MEAN_MOTION_DDOT":0.0},{"OBJECT_NAME":"ONEWEB-0239","OBJECT_ID":"2021-045AM","EPOCH":"2026-03-31T05:39:57.023424","MEAN_MOTION":13.1554748,"ECCENTRICITY":0.000253,"INCLINATION":87.8923,"RA_OF_ASC_NODE":274.7635,"ARG_OF_PERICENTER":87.1371,"MEAN_ANOMALY":273.0049,"EPHEMERIS_TYPE":0,"CLASSIFICATION_TYPE":"U","NORAD_CAT_ID":48802,"ELEMENT_SET_NO":999,"REV_AT_EPOCH":23409,"BSTAR":-0.00010585999999999999,"MEAN_MOTION_DOT":-2.7e-07,"MEAN_MOTION_DDOT":0.0},{"OBJECT_NAME":"ONEWEB-0249","OBJECT_ID":"2021-060A","EPOCH":"2026-03-31T03:44:38.856192","MEAN_MOTION":13.16592756,"ECCENTRICITY":0.0001815,"INCLINATION":87.9035,"RA_OF_ASC_NODE":244.2869,"ARG_OF_PERICENTER":96.4352,"MEAN_ANOMALY":263.6986,"EPHEMERIS_TYPE":0,"CLASSIFICATION_TYPE":"U","NORAD_CAT_ID":48967,"ELEMENT_SET_NO":999,"REV_AT_EPOCH":22934,"BSTAR":-0.00027664,"MEAN_MOTION_DOT":-9.3e-07,"MEAN_MOTION_DDOT":0.0},{"OBJECT_NAME":"ONEWEB-0250","OBJECT_ID":"2021-060B","EPOCH":"2026-03-31T02:56:48.667200","MEAN_MOTION":13.25829512,"ECCENTRICITY":0.000198,"INCLINATION":87.9035,"RA_OF_ASC_NODE":242.303,"ARG_OF_PERICENTER":68.3966,"MEAN_ANOMALY":291.7382,"EPHEMERIS_TYPE":0,"CLASSIFICATION_TYPE":"U","NORAD_CAT_ID":48968,"ELEMENT_SET_NO":999,"REV_AT_EPOCH":22987,"BSTAR":0.00026727,"MEAN_MOTION_DOT":1.3e-06,"MEAN_MOTION_DDOT":0.0},{"OBJECT_NAME":"ONEWEB-0252","OBJECT_ID":"2021-060D","EPOCH":"2026-03-30T23:00:48.650688","MEAN_MOTION":13.16595141,"ECCENTRICITY":0.0001778,"INCLINATION":87.9032,"RA_OF_ASC_NODE":244.3184,"ARG_OF_PERICENTER":107.1479,"MEAN_ANOMALY":252.9847,"EPHEMERIS_TYPE":0,"CLASSIFICATION_TYPE":"U","NORAD_CAT_ID":48970,"ELEMENT_SET_NO":999,"REV_AT_EPOCH":22936,"BSTAR":0.00012545999999999998,"MEAN_MOTION_DOT":6.1e-07,"MEAN_MOTION_DDOT":0.0},{"OBJECT_NAME":"ONEWEB-0253","OBJECT_ID":"2021-060E","EPOCH":"2026-03-30T22:44:49.872480","MEAN_MOTION":13.1659651,"ECCENTRICITY":0.0001802,"INCLINATION":87.9033,"RA_OF_ASC_NODE":244.3264,"ARG_OF_PERICENTER":97.6354,"MEAN_ANOMALY":262.4982,"EPHEMERIS_TYPE":0,"CLASSIFICATION_TYPE":"U","NORAD_CAT_ID":48971,"ELEMENT_SET_NO":999,"REV_AT_EPOCH":22929,"BSTAR":0.00015770999999999998,"MEAN_MOTION_DOT":7.3e-07,"MEAN_MOTION_DDOT":0.0},{"OBJECT_NAME":"ONEWEB-0254","OBJECT_ID":"2021-060F","EPOCH":"2026-03-30T22:58:32.143008","MEAN_MOTION":13.16594894,"ECCENTRICITY":0.0002033,"INCLINATION":87.9037,"RA_OF_ASC_NODE":244.3199,"ARG_OF_PERICENTER":94.2195,"MEAN_ANOMALY":265.9168,"EPHEMERIS_TYPE":0,"CLASSIFICATION_TYPE":"U","NORAD_CAT_ID":48972,"ELEMENT_SET_NO":999,"REV_AT_EPOCH":22929,"BSTAR":0.00014827000000000002,"MEAN_MOTION_DOT":7e-07,"MEAN_MOTION_DDOT":0.0},{"OBJECT_NAME":"ONEWEB-0255","OBJECT_ID":"2021-060G","EPOCH":"2026-03-31T03:32:07.178784","MEAN_MOTION":13.16593073,"ECCENTRICITY":0.0001958,"INCLINATION":87.9035,"RA_OF_ASC_NODE":244.2905,"ARG_OF_PERICENTER":97.1781,"MEAN_ANOMALY":262.9572,"EPHEMERIS_TYPE":0,"CLASSIFICATION_TYPE":"U","NORAD_CAT_ID":48973,"ELEMENT_SET_NO":999,"REV_AT_EPOCH":22939,"BSTAR":-0.00029073,"MEAN_MOTION_DOT":-9.8e-07,"MEAN_MOTION_DDOT":0.0},{"OBJECT_NAME":"ONEWEB-0256","OBJECT_ID":"2021-060H","EPOCH":"2026-03-30T22:41:24.948960","MEAN_MOTION":13.16595759,"ECCENTRICITY":0.0001645,"INCLINATION":87.9036,"RA_OF_ASC_NODE":244.3385,"ARG_OF_PERICENTER":103.1179,"MEAN_ANOMALY":257.0135,"EPHEMERIS_TYPE":0,"CLASSIFICATION_TYPE":"U","NORAD_CAT_ID":48974,"ELEMENT_SET_NO":999,"REV_AT_EPOCH":22933,"BSTAR":0.00023186000000000002,"MEAN_MOTION_DOT":1.01e-06,"MEAN_MOTION_DDOT":0.0},{"OBJECT_NAME":"ONEWEB-0257","OBJECT_ID":"2021-060J","EPOCH":"2026-03-31T03:07:02.292960","MEAN_MOTION":13.16595731,"ECCENTRICITY":0.000189,"INCLINATION":87.9036,"RA_OF_ASC_NODE":244.2852,"ARG_OF_PERICENTER":100.9879,"MEAN_ANOMALY":259.1464,"EPHEMERIS_TYPE":0,"CLASSIFICATION_TYPE":"U","NORAD_CAT_ID":48975,"ELEMENT_SET_NO":999,"REV_AT_EPOCH":22931,"BSTAR":0.00014196,"MEAN_MOTION_DOT":6.7e-07,"MEAN_MOTION_DDOT":0.0},{"OBJECT_NAME":"ONEWEB-0258","OBJECT_ID":"2021-060K","EPOCH":"2026-03-31T03:09:17.647200","MEAN_MOTION":13.16595929,"ECCENTRICITY":0.0001754,"INCLINATION":87.9033,"RA_OF_ASC_NODE":244.2961,"ARG_OF_PERICENTER":96.7798,"MEAN_ANOMALY":263.3532,"EPHEMERIS_TYPE":0,"CLASSIFICATION_TYPE":"U","NORAD_CAT_ID":48976,"ELEMENT_SET_NO":999,"REV_AT_EPOCH":22932,"BSTAR":-0.0007682,"MEAN_MOTION_DOT":-2.81e-06,"MEAN_MOTION_DDOT":0.0}]